TEVEL2-2                
1 63219U 25052K   26068.64848259  .00020339  00000+0  69428-3 0  9991
2 63219  97.3987 324.7700 0004693 105.7930 254.3828 15.30343745 54855
STARLINK-33768          
1 63454U 25069X   26068.48132380  .00037166  00000+0  12609-2 0  9997
2 63454  53.1580 143.3729 0001089  46.5569 313.5523 15.30194017 53379
